[{"OBJECT_NAME":"STARLINK-34011","OBJECT_ID":"2025-093K","EPOCH":"2026-03-17T04:24:12.204576","MEAN_MOTION":15.2759359,"ECCENTRICITY":0.00013203,"INCLINATION":43.0014,"RA_OF_ASC_NODE":35.9841,"ARG_OF_PERICENTER":269.8505,"MEAN_ANOMALY":90.2195,"EPHEMERIS_TYPE":0,"CLASSIFICATION_TYPE":"U","NORAD_CAT_ID":63845,"ELEMENT_SET_NO":999,"REV_AT_EPOCH":4889,"BSTAR":0.00068744502,"MEAN_MOTION_DOT":0.00018711,"MEAN_MOTION_DDOT":0},{"OBJECT_NAME":"STARLINK-34044","OBJECT_ID":"2025-093L","EPOCH":"2026-03-16T22:31:25.273344","MEAN_MOTION":15.27596977,"ECCENTRICITY":9.812e-5,"INCLINATION":43.0022,"RA_OF_ASC_NODE":36.7197,"ARG_OF_PERICENTER":263.0745,"MEAN_ANOMALY":96.9996,"EPHEMERIS_TYPE":0,"CLASSIFICATION_TYPE":"U","NORAD_CAT_ID":63846,"ELEMENT_SET_NO":999,"REV_AT_EPOCH":4886,"BSTAR":0.0010489098,"MEAN_MOTION_DOT":0.00028729,"MEAN_MOTION_DDOT":0},{"OBJECT_NAME":"STARLINK-34037","OBJECT_ID":"2025-093M","EPOCH":"2026-03-16T22:46:13.134432","MEAN_MOTION":15.2758902,"ECCENTRICITY":0.00011055,"INCLINATION":43.0048,"RA_OF_ASC_NODE":36.7944,"ARG_OF_PERICENTER":251.619,"MEAN_ANOMALY":108.4542,"EPHEMERIS_TYPE":0,"CLASSIFICATION_TYPE":"U","NORAD_CAT_ID":63847,"ELEMENT_SET_NO":999,"REV_AT_EPOCH":4908,"BSTAR":0.0011042218,"MEAN_MOTION_DOT":0.00030257,"MEAN_MOTION_DDOT":0},{"OBJECT_NAME":"STARLINK-34010","OBJECT_ID":"2025-093N","EPOCH":"2026-03-17T02:03:47.285280","MEAN_MOTION":15.2759994,"ECCENTRICITY":0.00014516,"INCLINATION":43.0033,"RA_OF_ASC_NODE":36.1011,"ARG_OF_PERICENTER":250.2485,"MEAN_ANOMALY":109.821,"EPHEMERIS_TYPE":0,"CLASSIFICATION_TYPE":"U","NORAD_CAT_ID":63848,"ELEMENT_SET_NO":999,"REV_AT_EPOCH":4888,"BSTAR":0.00072868215,"MEAN_MOTION_DOT":0.00019856,"MEAN_MOTION_DDOT":0},{"OBJECT_NAME":"STARLINK-34009","OBJECT_ID":"2025-093P","EPOCH":"2026-03-17T04:06:23.774400","MEAN_MOTION":15.27594458,"ECCENTRICITY":0.00010568,"INCLINATION":43.0023,"RA_OF_ASC_NODE":32.4196,"ARG_OF_PERICENTER":269.8475,"MEAN_ANOMALY":90.2256,"EPHEMERIS_TYPE":0,"CLASSIFICATION_TYPE":"U","NORAD_CAT_ID":63849,"ELEMENT_SET_NO":999,"REV_AT_EPOCH":4915,"BSTAR":0.00066545589,"MEAN_MOTION_DOT":0.00018103,"MEAN_MOTION_DDOT":0},{"OBJECT_NAME":"STARLINK-33958","OBJECT_ID":"2025-093Q","EPOCH":"2026-03-17T04:14:58.163712","MEAN_MOTION":15.27598461,"ECCENTRICITY":0.00015644,"INCLINATION":43.0005,"RA_OF_ASC_NODE":35.9305,"ARG_OF_PERICENTER":274.1387,"MEAN_ANOMALY":85.9286,"EPHEMERIS_TYPE":0,"CLASSIFICATION_TYPE":"U","NORAD_CAT_ID":63850,"ELEMENT_SET_NO":999,"REV_AT_EPOCH":4895,"BSTAR":0.00098753712,"MEAN_MOTION_DOT":0.00027028,"MEAN_MOTION_DDOT":0},{"OBJECT_NAME":"STARLINK-33776","OBJECT_ID":"2025-093R","EPOCH":"2026-03-16T22:36:58.188960","MEAN_MOTION":15.27595251,"ECCENTRICITY":9.753e-5,"INCLINATION":43.0015,"RA_OF_ASC_NODE":36.7419,"ARG_OF_PERICENTER":245.2271,"MEAN_ANOMALY":114.8479,"EPHEMERIS_TYPE":0,"CLASSIFICATION_TYPE":"U","NORAD_CAT_ID":63851,"ELEMENT_SET_NO":999,"REV_AT_EPOCH":4907,"BSTAR":0.00070967584,"MEAN_MOTION_DOT":0.00019327,"MEAN_MOTION_DDOT":0},{"OBJECT_NAME":"STARLINK-34032","OBJECT_ID":"2025-093T","EPOCH":"2026-03-16T22:40:40.014048","MEAN_MOTION":15.27588783,"ECCENTRICITY":0.00014337,"INCLINATION":43.0042,"RA_OF_ASC_NODE":36.7465,"ARG_OF_PERICENTER":243.5207,"MEAN_ANOMALY":116.5498,"EPHEMERIS_TYPE":0,"CLASSIFICATION_TYPE":"U","NORAD_CAT_ID":63853,"ELEMENT_SET_NO":999,"REV_AT_EPOCH":4908,"BSTAR":0.00078425154,"MEAN_MOTION_DOT":0.00021387,"MEAN_MOTION_DDOT":0},{"OBJECT_NAME":"STARLINK-34015","OBJECT_ID":"2025-093U","EPOCH":"2026-03-17T04:18:38.564928","MEAN_MOTION":15.27593685,"ECCENTRICITY":0.00014707,"INCLINATION":43.0014,"RA_OF_ASC_NODE":35.9285,"ARG_OF_PERICENTER":275.4433,"MEAN_ANOMALY":84.6251,"EPHEMERIS_TYPE":0,"CLASSIFICATION_TYPE":"U","NORAD_CAT_ID":63854,"ELEMENT_SET_NO":999,"REV_AT_EPOCH":4895,"BSTAR":0.00057715477,"MEAN_MOTION_DOT":0.0001566,"MEAN_MOTION_DDOT":0},{"OBJECT_NAME":"STARLINK-33969","OBJECT_ID":"2025-093V","EPOCH":"2026-03-17T03:34:14.043360","MEAN_MOTION":15.27587632,"ECCENTRICITY":0.00011229,"INCLINATION":43.0023,"RA_OF_ASC_NODE":35.6944,"ARG_OF_PERICENTER":253.1068,"MEAN_ANOMALY":106.966,"EPHEMERIS_TYPE":0,"CLASSIFICATION_TYPE":"U","NORAD_CAT_ID":63855,"ELEMENT_SET_NO":999,"REV_AT_EPOCH":4889,"BSTAR":0.00063486611,"MEAN_MOTION_DOT":0.00017253,"MEAN_MOTION_DDOT":0},{"OBJECT_NAME":"STARLINK-34002","OBJECT_ID":"2025-093W","EPOCH":"2026-03-17T03:47:11.344416","MEAN_MOTION":15.27590645,"ECCENTRICITY":0.0001637,"INCLINATION":43.0022,"RA_OF_ASC_NODE":35.7631,"ARG_OF_PERICENTER":250.5326,"MEAN_ANOMALY":109.5349,"EPHEMERIS_TYPE":0,"CLASSIFICATION_TYPE":"U","NORAD_CAT_ID":63856,"ELEMENT_SET_NO":999,"REV_AT_EPOCH":4889,"BSTAR":0.0006404622,"MEAN_MOTION_DOT":0.00017409,"MEAN_MOTION_DDOT":0},{"OBJECT_NAME":"STARLINK-33999","OBJECT_ID":"2025-093X","EPOCH":"2026-03-16T22:44:21.578208","MEAN_MOTION":15.27596962,"ECCENTRICITY":0.00012746,"INCLINATION":43.0028,"RA_OF_ASC_NODE":36.7474,"ARG_OF_PERICENTER":249.1657,"MEAN_ANOMALY":110.9059,"EPHEMERIS_TYPE":0,"CLASSIFICATION_TYPE":"U","NORAD_CAT_ID":63857,"ELEMENT_SET_NO":999,"REV_AT_EPOCH":4908,"BSTAR":0.00090056393,"MEAN_MOTION_DOT":0.00024615,"MEAN_MOTION_DDOT":0},{"OBJECT_NAME":"STARLINK-33976","OBJECT_ID":"2025-093Y","EPOCH":"2026-03-17T03:39:47.077344","MEAN_MOTION":15.27590847,"ECCENTRICITY":0.00015174,"INCLINATION":43.0018,"RA_OF_ASC_NODE":35.708,"ARG_OF_PERICENTER":251.5501,"MEAN_ANOMALY":108.5186,"EPHEMERIS_TYPE":0,"CLASSIFICATION_TYPE":"U","NORAD_CAT_ID":63858,"ELEMENT_SET_NO":999,"REV_AT_EPOCH":4895,"BSTAR":0.00074745314,"MEAN_MOTION_DOT":0.0002037,"MEAN_MOTION_DDOT":0},{"OBJECT_NAME":"STARLINK-33821","OBJECT_ID":"2025-093Z","EPOCH":"2026-03-17T04:00:08.109792","MEAN_MOTION":15.27591444,"ECCENTRICITY":0.00013235,"INCLINATION":43.001,"RA_OF_ASC_NODE":35.8078,"ARG_OF_PERICENTER":268.0339,"MEAN_ANOMALY":92.0361,"EPHEMERIS_TYPE":0,"CLASSIFICATION_TYPE":"U","NORAD_CAT_ID":63859,"ELEMENT_SET_NO":999,"REV_AT_EPOCH":4909,"BSTAR":0.00070960993,"MEAN_MOTION_DOT":0.00019323,"MEAN_MOTION_DDOT":0},{"OBJECT_NAME":"STARLINK-33888","OBJECT_ID":"2025-093AA","EPOCH":"2026-03-17T03:49:02.337312","MEAN_MOTION":15.27602195,"ECCENTRICITY":0.00014031,"INCLINATION":43.0025,"RA_OF_ASC_NODE":35.7704,"ARG_OF_PERICENTER":247.3842,"MEAN_ANOMALY":112.6862,"EPHEMERIS_TYPE":0,"CLASSIFICATION_TYPE":"U","NORAD_CAT_ID":63860,"ELEMENT_SET_NO":999,"REV_AT_EPOCH":4911,"BSTAR":0.00082907814,"MEAN_MOTION_DOT":0.00022638,"MEAN_MOTION_DDOT":0},{"OBJECT_NAME":"STARLINK-33896","OBJECT_ID":"2025-093AB","EPOCH":"2026-03-17T03:56:26.655360","MEAN_MOTION":15.27577796,"ECCENTRICITY":0.00014832,"INCLINATION":43.0005,"RA_OF_ASC_NODE":35.8113,"ARG_OF_PERICENTER":258.8462,"MEAN_ANOMALY":101.2223,"EPHEMERIS_TYPE":0,"CLASSIFICATION_TYPE":"U","NORAD_CAT_ID":63861,"ELEMENT_SET_NO":999,"REV_AT_EPOCH":4889,"BSTAR":0.0007961344,"MEAN_MOTION_DOT":0.00021709,"MEAN_MOTION_DDOT":0}]
