STARLINK-34011          
1 63845U 25093K   26076.18347459  .00018711  00000+0  68745-3 0  9997
2 63845  43.0014  35.9841 0001320 269.8505  90.2195 15.27593590 48892
STARLINK-34044          
1 63846U 25093L   26075.93848696  .00028729  00000+0  10489-2 0  9990
2 63846  43.0022  36.7197 0000981 263.0745  96.9996 15.27596977 48860
STARLINK-34037          
1 63847U 25093M   26075.94876313  .00030257  00000+0  11042-2 0  9994
2 63847  43.0048  36.7944 0001105 251.6190 108.4542 15.27589020 49087
STARLINK-34010          
1 63848U 25093N   26076.08596395  .00019856  00000+0  72868-3 0  9996
2 63848  43.0033  36.1011 0001451 250.2485 109.8210 15.27599940 48883
STARLINK-34009          
1 63849U 25093P   26076.17110850  .00018103  00000+0  66546-3 0  9995
2 63849  43.0023  32.4196 0001056 269.8475  90.2256 15.27594458 49155
STARLINK-33958          
1 63850U 25093Q   26076.17706208  .00027028  00000+0  98754-3 0  9997
2 63850  43.0005  35.9305 0001564 274.1387  85.9286 15.27598461 48951
STARLINK-33776          
1 63851U 25093R   26075.94234015  .00019327  00000+0  70968-3 0  9994
2 63851  43.0015  36.7419 0000975 245.2271 114.8479 15.27595251 49078
STARLINK-34032          
1 63853U 25093T   26075.94490757  .00021387  00000+0  78425-3 0  9998
2 63853  43.0042  36.7465 0001433 243.5207 116.5498 15.27588783 49084
STARLINK-34015          
1 63854U 25093U   26076.17961302  .00015660  00000+0  57715-3 0  9990
2 63854  43.0014  35.9285 0001470 275.4433  84.6251 15.27593685 48955
STARLINK-33969          
1 63855U 25093V   26076.14877365  .00017253  00000+0  63487-3 0  9996
2 63855  43.0023  35.6944 0001122 253.1068 106.9660 15.27587632 48896
STARLINK-34002          
1 63856U 25093W   26076.15777019  .00017409  00000+0  64046-3 0  9998
2 63856  43.0022  35.7631 0001637 250.5326 109.5349 15.27590645 48890
STARLINK-33999          
1 63857U 25093X   26075.94747197  .00024615  00000+0  90056-3 0  9996
2 63857  43.0028  36.7474 0001274 249.1657 110.9059 15.27596962 49085
STARLINK-33976          
1 63858U 25093Y   26076.15262821  .00020370  00000+0  74745-3 0  9998
2 63858  43.0018  35.7080 0001517 251.5501 108.5186 15.27590847 48957
STARLINK-33821          
1 63859U 25093Z   26076.16676053  .00019323  00000+0  70961-3 0  9998
2 63859  43.0010  35.8078 0001323 268.0339  92.0361 15.27591444 49097
STARLINK-33888          
1 63860U 25093AA  26076.15905483  .00022638  00000+0  82908-3 0  9998
2 63860  43.0025  35.7704 0001403 247.3842 112.6862 15.27602195 49112
STARLINK-33896          
1 63861U 25093AB  26076.16419740  .00021709  00000+0  79613-3 0  9993
2 63861  43.0005  35.8113 0001483 258.8462 101.2223 15.27577796 48896
